{
    "links": {
        "self": "http://www.neowsapp.com/rest/v1/neo/3394537?api_key=iIulBulltgU6a56xZRHN4H3l9WmuAYTsLGpBGhQ2"
    },
    "id": "3394537",
    "neo_reference_id": "3394537",
    "name": "(2007 VF184)",
    "designation": "2007 VF184",
    "nasa_jpl_url": "http://ssd.jpl.nasa.gov/sbdb.cgi?sstr=3394537",
    "absolute_magnitude_h": 25.4,
    "estimated_diameter": {
        "kilometers": {
            "estimated_diameter_min": 0.022108281,
            "estimated_diameter_max": 0.0494356193
        },
        "meters": {
            "estimated_diameter_min": 22.1082810359,
            "estimated_diameter_max": 49.435619262
        },
        "miles": {
            "estimated_diameter_min": 0.0137374447,
            "estimated_diameter_max": 0.0307178602
        },
        "feet": {
            "estimated_diameter_min": 72.5337327539,
            "estimated_diameter_max": 162.1903570994
        }
    },
    "is_potentially_hazardous_asteroid": false,
    "close_approach_data": [
        {
            "close_approach_date": "2007-11-12",
            "close_approach_date_full": "2007-Nov-12 10:06",
            "epoch_date_close_approach": 1194861960000,
            "relative_velocity": {
                "kilometers_per_second": "11.3654281811",
                "kilometers_per_hour": "40915.5414519377",
                "miles_per_hour": "25423.3262982887"
            },
            "miss_distance": {
                "astronomical": "0.0280327712",
                "lunar": "10.9047479968",
                "kilometers": "4193642.861717344",
                "miles": "2605808.8413095872"
            },
            "orbiting_body": "Earth"
        },
        {
            "close_approach_date": "2008-04-25",
            "close_approach_date_full": "2008-Apr-25 01:40",
            "epoch_date_close_approach": 1209087600000,
            "relative_velocity": {
                "kilometers_per_second": "10.185265501",
                "kilometers_per_hour": "36666.9558036587",
                "miles_per_hour": "22783.4203992234"
            },
            "miss_distance": {
                "astronomical": "0.2700507457",
                "lunar": "105.0497400773",
                "kilometers": "40399016.348631659",
                "miles": "25102784.7274445342"
            },
            "orbiting_body": "Earth"
        }
    ],
    "orbital_data": {
        "orbit_id": "6",
        "orbit_determination_date": "2017-04-06 09:05:14",
        "first_observation_date": "2007-11-11",
        "last_observation_date": "2007-11-13",
        "data_arc_in_days": 2,
        "observations_used": 10,
        "orbit_uncertainty": "9",
        "minimum_orbit_intersection": ".0264234",
        "jupiter_tisserand_invariant": "5.180",
        "epoch_osculation": "2454417.5",
        "eccentricity": ".2425915192702304",
        "semi_major_axis": "1.211881384500941",
        "inclination": "18.88001977324808",
        "ascending_node_longitude": "227.0313089732189",
        "orbital_period": "487.2912336091663",
        "perihelion_distance": ".9178892382595473",
        "perihelion_argument": "241.0207764987863",
        "aphelion_distance": "1.505873530742334",
        "perihelion_time": "2454467.457395208668",
        "mean_anomaly": "323.0925798892061",
        "mean_motion": ".7387779117913278",
        "equinox": "J2000",
        "orbit_class": {
            "orbit_class_type": "APO",
            "orbit_class_description": "Near-Earth asteroid orbits which cross the Earth’s orbit similar to that of 1862 Apollo",
            "orbit_class_range": "a (semi-major axis) > 1.0 AU; q (perihelion) < 1.017 AU"
        }
    },
    "is_sentry_object": false
}